{
"type": "FeatureCollection",
"name": "snowzone",
"crs": { "type": "name", "properties": { "name": "urn:ogc:def:crs:OGC:1.3:CRS84" } },
"features": [
{ "type": "Feature", "properties": { }, "geometry": { "type": "Polygon", "coordinates": [ [ [ 73.987292637245417, 37.157403566571986 ], [ 73.987292637245417, 37.157403566571986 ], [ 75.39823903918986, 36.952762485373938 ], [ 77.143073520983748, 36.091115827697941 ], [ 78.758661004126239, 34.10932851504316 ], [ 75.9044564505745, 33.463093521786163 ], [ 75.182827374770866, 34.841728174067754 ], [ 73.567239891628375, 34.949434006277251 ], [ 73.104104813127535, 34.917122256614405 ], [ 72.694822650731439, 35.186386837138151 ], [ 72.554805068859082, 35.843392413616094 ], [ 72.684052067510478, 36.500397990094037 ], [ 72.964087231255178, 36.920450735711086 ], [ 73.987292637245417, 37.135862400130087 ], [ 73.976522054024471, 37.135862400130087 ], [ 73.987292637245417, 37.157403566571986 ] ] ] } },
{ "type": "Feature", "properties": { }, "geometry": { "type": "Polygon", "coordinates": [ [ [ 78.007003174731324, 35.566645061793935 ], [ 79.145234137210267, 34.415178855565237 ], [ 77.543769643489895, 32.70783241184683 ], [ 76.326127218512426, 33.647534718079442 ], [ 75.545247837276875, 33.263712649336547 ], [ 75.439365887278839, 33.899004349324791 ], [ 75.399660156029569, 33.951945324323809 ], [ 75.134955281034465, 34.865177143056911 ], [ 73.639372737312144, 35.063705799303243 ], [ 75.915834662270015, 36.863698949269931 ], [ 73.917312856056995, 37.128403824265035 ], [ 76.021716612268065, 36.810757974270913 ], [ 74.089371024803825, 37.32693248051136 ], [ 72.67319994358003, 36.996051386767483 ], [ 72.223201656088349, 36.215172005531933 ], [ 73.401138349816549, 34.176944468069649 ], [ 73.652607981061905, 35.024000068053972 ], [ 75.84965844352125, 36.771052243021643 ], [ 78.007003174731324, 35.566645061793935 ] ] ] } }
]
}
