{
"type": "FeatureCollection",
"name": "snow_zone",
"crs": { "type": "name", "properties": { "name": "urn:ogc:def:crs:OGC:1.3:CRS84" } },
"features": [
{ "type": "Feature", "properties": { }, "geometry": { "type": "Polygon", "coordinates": [ [ [ 73.987292637245417, 37.157403566571986 ], [ 73.987292637245417, 37.157403566571986 ], [ 75.39823903918986, 36.952762485373938 ], [ 77.143073520983748, 36.091115827697941 ], [ 78.758661004126239, 34.10932851504316 ], [ 75.9044564505745, 33.463093521786163 ], [ 75.182827374770866, 34.841728174067754 ], [ 73.567239891628375, 34.949434006277251 ], [ 73.104104813127535, 34.917122256614405 ], [ 72.694822650731439, 35.186386837138151 ], [ 72.554805068859082, 35.843392413616094 ], [ 72.684052067510478, 36.500397990094037 ], [ 72.964087231255178, 36.920450735711086 ], [ 73.987292637245417, 37.135862400130087 ], [ 73.976522054024471, 37.135862400130087 ], [ 73.987292637245417, 37.157403566571986 ] ] ] } }
]
}
